{
  "type": "FeatureCollection",
  "features": [
    {
      "type": "Feature",
      "properties": {
        "norad_id": 66753,
        "name": "ICEYE-X60",
        "group": "last-30-days",
        "lat": 21.652067963294872,
        "lon": 67.19260117115103,
        "alt_km": 516.1740351391745,
        "timestamp": "2025-12-24T14:43:27.720564+00:00",
        "meta_object_name": "ICEYE-X60",
        "meta_object_id": "2025-276CR",
        "meta_epoch": "2025-12-22T16:43:05.853792",
        "meta_mean_motion": 15.17180475,
        "meta_eccentricity": 0.00011044,
        "meta_inclination": 97.441,
        "meta_ra_of_asc_node": 68.2849,
        "meta_arg_of_pericenter": 193.8242,
        "meta_mean_anomaly": 166.2962,
        "meta_ephemeris_type": 0,
        "meta_classification_type": "U",
        "meta_norad_cat_id": 66753,
        "meta_element_set_no": 999,
        "meta_rev_at_epoch": 363,
        "meta_bstar": -0.0054396978,
        "meta_mean_motion_dot": -0.00106457,
        "meta_mean_motion_ddot": 0,
        "tle_line1": "1 66753U 25276CR  25356.69659553 -.00106457  00000+0 -54397-2 0  9992",
        "tle_line2": "2 66753  97.4410  68.2849 0001104 193.8242 166.2962 15.17180475  3639"
      },
      "geometry": {
        "type": "Point",
        "coordinates": [
          67.19260117115103,
          21.652067963294872
        ]
      }
    },
    {
      "type": "Feature",
      "properties": {
        "norad_id": 66754,
        "name": "ICEYE-X61",
        "group": "last-30-days",
        "lat": 68.43121640747496,
        "lon": 50.880283098346865,
        "alt_km": 506.3913849573164,
        "timestamp": "2025-12-24T14:43:27.720574+00:00",
        "meta_object_name": "ICEYE-X61",
        "meta_object_id": "2025-276CS",
        "meta_epoch": "2025-12-24T06:30:26.607456",
        "meta_mean_motion": 15.17858911,
        "meta_eccentricity": 0.00023745,
        "meta_inclination": 97.4405,
        "meta_ra_of_asc_node": 69.8492,
        "meta_arg_of_pericenter": 187.1235,
        "meta_mean_anomaly": 172.9966,
        "meta_ephemeris_type": 0,
        "meta_classification_type": "U",
        "meta_norad_cat_id": 66754,
        "meta_element_set_no": 999,
        "meta_rev_at_epoch": 387,
        "meta_bstar": 0.0003173273,
        "meta_mean_motion_dot": 6.36e-05,
        "meta_mean_motion_ddot": 0,
        "tle_line1": "1 66754U 25276CS  25358.27114129  .00006360  00000+0  31733-3 0  9994",
        "tle_line2": "2 66754  97.4405  69.8492 0002374 187.1235 172.9966 15.17858911  3874"
      },
      "geometry": {
        "type": "Point",
        "coordinates": [
          50.880283098346865,
          68.43121640747496
        ]
      }
    },
    {
      "type": "Feature",
      "properties": {
        "norad_id": 66755,
        "name": "ICEYE-X62",
        "group": "last-30-days",
        "lat": 45.130240004988075,
        "lon": 62.62830811375325,
        "alt_km": 510.2060534426719,
        "timestamp": "2025-12-24T14:43:27.720588+00:00",
        "meta_object_name": "ICEYE-X62",
        "meta_object_id": "2025-276CT",
        "meta_epoch": "2025-12-22T22:57:46.373472",
        "meta_mean_motion": 15.17604649,
        "meta_eccentricity": 0.00026826,
        "meta_inclination": 97.4395,
        "meta_ra_of_asc_node": 68.5434,
        "meta_arg_of_pericenter": 290.3052,
        "meta_mean_anomaly": 69.7893,
        "meta_ephemeris_type": 0,
        "meta_classification_type": "U",
        "meta_norad_cat_id": 66755,
        "meta_element_set_no": 999,
        "meta_rev_at_epoch": 367,
        "meta_bstar": 7.2637995e-05,
        "meta_mean_motion_dot": 1.393e-05,
        "meta_mean_motion_ddot": 0,
        "tle_line1": "1 66755U 25276CT  25356.95678673  .00001393  00000+0  72638-4 0  9998",
        "tle_line2": "2 66755  97.4395  68.5434 0002682 290.3052  69.7893 15.17604649  3678"
      },
      "geometry": {
        "type": "Point",
        "coordinates": [
          62.62830811375325,
          45.130240004988075
        ]
      }
    },
    {
      "type": "Feature",
      "properties": {
        "norad_id": 66756,
        "name": "TRANSPORTER-15CU",
        "group": "last-30-days",
        "lat": 74.3279471546095,
        "lon": 42.42768577029826,
        "alt_km": 504.62325746814986,
        "timestamp": "2025-12-24T14:43:27.720598+00:00",
        "meta_object_name": "TRANSPORTER-15CU",
        "meta_object_id": "2025-276CU",
        "meta_epoch": "2025-12-24T04:53:51.337824",
        "meta_mean_motion": 15.17963946,
        "meta_eccentricity": 0.00016485,
        "meta_inclination": 97.441,
        "meta_ra_of_asc_node": 69.7896,
        "meta_arg_of_pericenter": 153.8094,
        "meta_mean_anomaly": 206.3224,
        "meta_ephemeris_type": 0,
        "meta_classification_type": "U",
        "meta_norad_cat_id": 66756,
        "meta_element_set_no": 999,
        "meta_rev_at_epoch": 386,
        "meta_bstar": 0.00052174089,
        "meta_mean_motion_dot": 0.00010538,
        "meta_mean_motion_ddot": 0,
        "tle_line1": "1 66756U 25276CU  25358.20406641  .00010538  00000+0  52174-3 0  9996",
        "tle_line2": "2 66756  97.4410  69.7896 0001648 153.8094 206.3224 15.17963946  3868"
      },
      "geometry": {
        "type": "Point",
        "coordinates": [
          42.42768577029826,
          74.3279471546095
        ]
      }
    },
    {
      "type": "Feature",
      "properties": {
        "norad_id": 66757,
        "name": "TRANSPORTER-15CV",
        "group": "last-30-days",
        "lat": 80.80105259081061,
        "lon": 16.380040815163976,
        "alt_km": 503.6806642458496,
        "timestamp": "2025-12-24T14:43:27.720626+00:00",
        "meta_object_name": "TRANSPORTER-15CV",
        "meta_object_id": "2025-276CV",
        "meta_epoch": "2025-12-24T06:26:36.386016",
        "meta_mean_motion": 15.18091372,
        "meta_eccentricity": 0.00020695,
        "meta_inclination": 97.4421,
        "meta_ra_of_asc_node": 69.8597,
        "meta_arg_of_pericenter": 155.4992,
        "meta_mean_anomaly": 204.6341,
        "meta_ephemeris_type": 0,
        "meta_classification_type": "U",
        "meta_norad_cat_id": 66757,
        "meta_element_set_no": 999,
        "meta_rev_at_epoch": 387,
        "meta_bstar": 0.00062084031,
        "meta_mean_motion_dot": 0.00012602,
        "meta_mean_motion_ddot": 0,
        "tle_line1": "1 66757U 25276CV  25358.26847669  .00012602  00000+0  62084-3 0  9997",
        "tle_line2": "2 66757  97.4421  69.8597 0002069 155.4992 204.6341 15.18091372  3871"
      },
      "geometry": {
        "type": "Point",
        "coordinates": [
          16.380040815163976,
          80.80105259081061
        ]
      }
    },
    {
      "type": "Feature",
      "properties": {
        "norad_id": 66758,
        "name": "TRANSPORTER-15CW",
        "group": "last-30-days",
        "lat": 81.60705703380064,
        "lon": 7.862514302625223,
        "alt_km": 503.4913714843269,
        "timestamp": "2025-12-24T14:43:27.720639+00:00",
        "meta_object_name": "TRANSPORTER-15CW",
        "meta_object_id": "2025-276CW",
        "meta_epoch": "2025-12-24T06:26:12.467040",
        "meta_mean_motion": 15.1809391,
        "meta_eccentricity": 0.00014693,
        "meta_inclination": 97.4392,
        "meta_ra_of_asc_node": 69.8497,
        "meta_arg_of_pericenter": 137.4548,
        "meta_mean_anomaly": 222.68,
        "meta_ephemeris_type": 0,
        "meta_classification_type": "U",
        "meta_norad_cat_id": 66758,
        "meta_element_set_no": 999,
        "meta_rev_at_epoch": 387,
        "meta_bstar": 0.00055534732,
        "meta_mean_motion_dot": 0.00011264,
        "meta_mean_motion_ddot": 0,
        "tle_line1": "1 66758U 25276CW  25358.26819985  .00011264  00000+0  55535-3 0  9994",
        "tle_line2": "2 66758  97.4392  69.8497 0001469 137.4548 222.6800 15.18093910  3878"
      },
      "geometry": {
        "type": "Point",
        "coordinates": [
          7.862514302625223,
          81.60705703380064
        ]
      }
    },
    {
      "type": "Feature",
      "properties": {
        "norad_id": 66759,
        "name": "TRANSPORTER-15CX",
        "group": "last-30-days",
        "lat": 80.45307022777168,
        "lon": -58.84716062170097,
        "alt_km": 502.7785233838704,
        "timestamp": "2025-12-24T14:43:27.720649+00:00",
        "meta_object_name": "TRANSPORTER-15CX",
        "meta_object_id": "2025-276CX",
        "meta_epoch": "2025-12-24T03:13:50.466432",
        "meta_mean_motion": 15.18234635,
        "meta_eccentricity": 0.00018047,
        "meta_inclination": 97.4377,
        "meta_ra_of_asc_node": 69.7181,
        "meta_arg_of_pericenter": 137.2523,
        "meta_mean_anomaly": 222.8851,
        "meta_ephemeris_type": 0,
        "meta_classification_type": "U",
        "meta_norad_cat_id": 66759,
        "meta_element_set_no": 999,
        "meta_rev_at_epoch": 385,
        "meta_bstar": 0.00075944991,
        "meta_mean_motion_dot": 0.000155,
        "meta_mean_motion_ddot": 0,
        "tle_line1": "1 66759U 25276CX  25358.13461188  .00015500  00000+0  75945-3 0  9993",
        "tle_line2": "2 66759  97.4377  69.7181 0001804 137.2523 222.8851 15.18234635  3852"
      },
      "geometry": {
        "type": "Point",
        "coordinates": [
          -58.84716062170097,
          80.45307022777168
        ]
      }
    }
  ]
}